IRIDIUM 112             
1 41925U 17003J   25214.50072094  .00000021  00000+0  30314-6 0  9992
2 41925  86.3950 221.4110 0002369  88.5267 271.6200 14.34217581447628
IRIDIUM 111             
1 41926U 17003K   25214.48803321  .00000171  00000+0  53964-4 0  9995
2 41926  86.3952 221.4798 0002148  92.7542 267.3900 14.34217712447570
IRIDIUM 113             
1 42803U 17039A   25214.18892508  .00000020  00000+0 -34540-7 0  9997
2 42803  86.3949  95.5342 0002216  79.0024 281.1421 14.34218027425461
IRIDIUM 123             
1 42804U 17039B   25214.30017197  .00000095  00000+0  27023-4 0  9991
2 42804  86.3996 126.9647 0001850  85.3180 274.8227 14.34217770424249
IRIDIUM 120             
1 42805U 17039C   25214.60119385  .00000012  00000+0 -29071-5 0  9993
2 42805  86.3935  95.1852 0001916  93.5344 266.6071 14.34217586425516
IRIDIUM 115             
1 42806U 17039D   25214.61269905  .00000297  00000+0  82297-4 0  9991
2 42806  86.4475  95.2660 0001464  92.3906 267.7462 14.43279011428312
IRIDIUM 118             
1 42807U 17039E   25214.26211852  .00000208  00000+0  67150-4 0  9994
2 42807  86.3998 126.9797 0002555  77.0643 283.0838 14.34217387424238
IRIDIUM 117             
1 42808U 17039F   25214.28114418  .00000189  00000+0  60581-4 0  9996
2 42808  86.3995 126.9329 0001996  81.7804 278.3618 14.34218210424268
